NOAA 1 [-]              
1 04793U 70106A   22139.94657640 -.00000016  00000+0  17091-3 0  9993
2 04793 101.5575 204.4704 0031524  18.8193 154.1419 12.54005033354016
NOAA 2 (ITOS-D) [-]     
1 06235U 72082A   22139.87534201 -.00000017  00000+0  18242-3 0  9990
2 06235 101.9512 121.9326 0004432 125.0135 264.6141 12.53146737268392
NOAA 3 [-]              
1 06920U 73086A   22140.22545207 -.00000023  00000+0  16978-3 0  9996
2 06920 102.2051 121.6757 0006435 347.2576  23.5609 12.40348140197471
NOAA 4 [-]              
1 07529U 74089A   22139.72698678 -.00000021  00000+0  15596-3 0  9993
2 07529 101.9113 119.2812 0009128 156.1077  16.6811 12.53157423172941
NOAA 5 [-]              
1 09057U 76077A   22139.64882687 -.00000034  00000+0  81932-4 0  9998
2 09057 102.0961 107.9462 0009608 189.6927 343.8495 12.37770356 70178
TIROS N [-]             
1 11060U 78096A   22139.91836380  .00000235  00000+0  13463-3 0  9992
2 11060  98.6375 194.4152 0009962 220.7945 139.2486 14.18381984467567
NOAA 6 [-]              
1 11416U 79057A   22139.79016105  .00000403  00000+0  16132-3 0  9999
2 11416  98.6648 150.5999 0010006 350.5231   9.5763 14.33747653237410
NOAA 7 [-]              
1 12553U 81059A   22139.85161025  .00000114  00000+0  79181-4 0  9999
2 12553  99.0013 183.9092 0011334 192.3465 167.7433 14.17328899113743
NOAA 8 [-]              
1 13923U 83022A   22139.99501015  .00000227  00000+0  10749-3 0  9994
2 13923  98.6857 130.6513 0014031 294.8833  65.0889 14.28802430 38603
NOAA 9 [-]              
1 15427U 84123A   22140.18105341  .00000193  00000+0  12075-3 0  9999
2 15427  99.0433 112.1248 0013822 244.0969 126.3032 14.16196080932847
NOAA 10 [-]             
1 16969U 86073A   22139.46559198  .00000204  00000+0  99123-4 0  9992
2 16969  98.5665 126.1566 0013047  41.8888 109.7807 14.28194647856693
NOAA 11 [-]             
1 19531U 88089A   22139.71064772  .00000101  00000+0  73002-4 0  9990
2 19531  98.4229 130.3738 0009978 261.0239  98.9806 14.15307198736753
NOAA 12 [-]             
1 21263U 91032A   22139.86439117  .00000148  00000+0  79961-4 0  9993
2 21263  98.5138 140.4898 0014786  65.3676 294.9043 14.25988789612655
NOAA 13 [-]             
1 22739U 93050A   22139.69387473  .00000178  00000+0  11784-3 0  9993
2 22739  98.5027 120.9312 0010664  68.7116 291.5194 14.12838071483236
NOAA 14 [-]             
1 23455U 94089A   22139.90051466  .00000055  00000+0  50315-4 0  9994
2 23455  98.4500 168.1422 0010390  51.5486 308.6618 14.14194404412677
NOAA 15 [B]             
1 25338U 98030A   22140.07545432  .00000286  00000+0  13768-3 0  9993
2 25338  98.6461 169.9791 0010778  26.9659 333.2079 14.26126175249220
NOAA 16 [-]             
1 26536U 00055A   22139.86694579  .00000111  00000+0  81956-4 0  9998
2 26536  98.6382 199.7515 0009474 244.2226 115.7970 14.13324214413310
NOAA 17 [-]             
1 27453U 02032A   22139.92774464  .00000194  00000+0  10139-3 0  9998
2 27453  98.6702  85.5233 0011899   0.7604 359.3592 14.25116627 34790
NOAA 18 [B]             
1 28654U 05018A   22140.08914122  .00000247  00000+0  15713-3 0  9997
2 28654  98.9499 210.5463 0015051  55.2324 305.0262 14.12730295876068
NOAA 19 [+]             
1 33591U 09005A   22140.15795897  .00000238  00000+0  15367-3 0  9992
2 33591  99.1501 173.6971 0012836 267.1058  92.8644 14.12565192684457
SUOMI NPP [+]           
1 37849U 11061A   22140.06644563  .00000137  00000+0  85890-4 0  9997
2 37849  98.7315  79.0135 0001380  81.3608 289.1644 14.19565349547163
NOAA 20 [+]             
1 43013U 17073A   22140.10027634  .00000117  00000+0  76200-4 0  9998
2 43013  98.7154  79.0995 0001424 101.1144 259.0192 14.19552374233208
